{
  "norad_id": 37933,
  "name": "ASIASAT 7",
  "history": [
    {
      "epoch": "2026-03-28T22:07:53.329728Z",
      "apogee_km": 35793.04573027045,
      "perigee_km": 35780.92241465969,
      "latitude_deg": 0.024179006130978502,
      "longitude_deg": 105.50385635010669,
      "height_km": 35787.14934346103,
      "semi_major_axis_km": 42165.121072465074,
      "eccentricity": 0.00014376,
      "inclination_deg": 0.0125,
      "raan_deg": 227.833,
      "arg_perigee_deg": 132.383,
      "mean_anomaly_deg": 263.5887,
      "mean_motion_rev_day": 1.00270397
    },
    {
      "epoch": "2026-03-29T01:33:11.064096Z",
      "apogee_km": 35793.0650810187,
      "perigee_km": 35780.93838711878,
      "latitude_deg": 0.027478490413390545,
      "longitude_deg": 105.50761500082181,
      "height_km": 35782.222781935794,
      "semi_major_axis_km": 42165.13873406874,
      "eccentricity": 0.0001438,
      "inclination_deg": 0.0122,
      "raan_deg": 227.8808,
      "arg_perigee_deg": 132.9672,
      "mean_anomaly_deg": 314.4203,
      "mean_motion_rev_day": 1.00270334
    },
    {
      "epoch": "2026-03-30T01:30:51.844320Z",
      "apogee_km": 35793.19046657842,
      "perigee_km": 35781.02157744226,
      "latitude_deg": 0.03477904844704898,
      "longitude_deg": 105.50011745570909,
      "height_km": 35782.60428282525,
      "semi_major_axis_km": 42165.24302201034,
      "eccentricity": 0.0001443,
      "inclination_deg": 0.0154,
      "raan_deg": 216.6775,
      "arg_perigee_deg": 148.3363,
      "mean_anomaly_deg": 310.653,
      "mean_motion_rev_day": 1.00269962
    },
    {
      "epoch": "2026-03-30T06:38:37.325760Z",
      "apogee_km": 35793.250839709166,
      "perigee_km": 35781.01110572204,
      "latitude_deg": -0.004913351054422284,
      "longitude_deg": 105.51842049660532,
      "height_km": 35781.138568627284,
      "semi_major_axis_km": 42165.26797271561,
      "eccentricity": 0.00014514,
      "inclination_deg": 0.016,
      "raan_deg": 218.4603,
      "arg_perigee_deg": 147.4809,
      "mean_anomaly_deg": 26.8743,
      "mean_motion_rev_day": 1.00269873
    },
    {
      "epoch": "2026-03-30T10:04:17.598432Z",
      "apogee_km": 35793.288612834425,
      "perigee_km": 35781.000806438606,
      "latitude_deg": -0.033749378551303805,
      "longitude_deg": 105.52576036449283,
      "height_km": 35785.3429689968,
      "semi_major_axis_km": 42165.28170963652,
      "eccentricity": 0.00014571,
      "inclination_deg": 0.0156,
      "raan_deg": 215.2366,
      "arg_perigee_deg": 151.3272,
      "mean_anomaly_deg": 77.8091,
      "mean_motion_rev_day": 1.00269824
    },
    {
      "epoch": "2026-03-30T22:03:00.631584Z",
      "apogee_km": 35793.32165338925,
      "perigee_km": 35781.069251085275,
      "latitude_deg": 0.03623022245904282,
      "longitude_deg": 105.48885367497743,
      "height_km": 35788.173765020365,
      "semi_major_axis_km": 42165.332452237264,
      "eccentricity": 0.00014529,
      "inclination_deg": 0.0168,
      "raan_deg": 212.8145,
      "arg_perigee_deg": 155.8164,
      "mean_anomaly_deg": 255.9102,
      "mean_motion_rev_day": 1.00269643
    },
    {
      "epoch": "2026-03-31T20:52:11.890848Z",
      "apogee_km": 35793.499473229014,
      "perigee_km": 35781.09440256449,
      "latitude_deg": 0.03177832846730098,
      "longitude_deg": 105.48066616677586,
      "height_km": 35790.34232772743,
      "semi_major_axis_km": 42165.433937896756,
      "eccentricity": 0.0001471,
      "inclination_deg": 0.0181,
      "raan_deg": 207.9297,
      "arg_perigee_deg": 164.7217,
      "mean_anomaly_deg": 235.116,
      "mean_motion_rev_day": 1.00269281
    },
    {
      "epoch": "2026-04-01T20:04:21.600768Z",
      "apogee_km": 35793.70637758687,
      "perigee_km": 35781.09888123767,
      "latitude_deg": 0.019006741872894254,
      "longitude_deg": 105.47147716279241,
      "height_km": 35791.744450912855,
      "semi_major_axis_km": 42165.53962941227,
      "eccentricity": 0.0001495,
      "inclination_deg": 0.0028,
      "raan_deg": 196.9383,
      "arg_perigee_deg": 179.8994,
      "mean_anomaly_deg": 219.914,
      "mean_motion_rev_day": 1.00268904
    },
    {
      "epoch": "2026-04-02T20:12:55.355040Z",
      "apogee_km": 35793.9970727775,
      "perigee_km": 35781.0033100206,
      "latitude_deg": 0.026269034123994676,
      "longitude_deg": 105.45736165584329,
      "height_km": 35792.16955258802,
      "semi_major_axis_km": 42165.63719139905,
      "eccentricity": 0.00015408,
      "inclination_deg": 0.0166,
      "raan_deg": 201.8691,
      "arg_perigee_deg": 180.6526,
      "mean_anomaly_deg": 217.3508,
      "mean_motion_rev_day": 1.00268556
    },
    {
      "epoch": "2026-04-03T20:10:27.467616Z",
      "apogee_km": 35793.23258618201,
      "perigee_km": 35778.16323158558,
      "latitude_deg": 0.029591317665084334,
      "longitude_deg": 105.47040898710635,
      "height_km": 35790.56251221185,
      "semi_major_axis_km": 42163.8349088838,
      "eccentricity": 0.0001787,
      "inclination_deg": 0.0185,
      "raan_deg": 189.0084,
      "arg_perigee_deg": 186.5067,
      "mean_anomaly_deg": 224.7445,
      "mean_motion_rev_day": 1.00274985
    },
    {
      "epoch": "2026-04-04T01:18:30.470112Z",
      "apogee_km": 35793.22748543875,
      "perigee_km": 35778.20028898255,
      "latitude_deg": 0.035088736895529056,
      "longitude_deg": 105.4698122926571,
      "height_km": 35781.12085358402,
      "semi_major_axis_km": 42163.850887210654,
      "eccentricity": 0.0001782,
      "inclination_deg": 0.0181,
      "raan_deg": 186.3144,
      "arg_perigee_deg": 188.4836,
      "mean_anomaly_deg": 302.6876,
      "mean_motion_rev_day": 1.00274928
    },
    {
      "epoch": "2026-04-05T13:41:26.627712Z",
      "apogee_km": 35793.40715714999,
      "perigee_km": 35778.416994422565,
      "latitude_deg": -0.026535813433584996,
      "longitude_deg": 105.51624671919942,
      "height_km": 35789.90293117745,
      "semi_major_axis_km": 42164.04907578628,
      "eccentricity": 0.00017776,
      "inclination_deg": 0.0186,
      "raan_deg": 176.3102,
      "arg_perigee_deg": 201.7751,
      "mean_anomaly_deg": 126.6439,
      "mean_motion_rev_day": 1.00274221
    },
    {
      "epoch": "2026-04-05T20:40:38.886816Z",
      "apogee_km": 35793.459354353676,
      "perigee_km": 35778.43207527412,
      "latitude_deg": 0.03145041325313695,
      "longitude_deg": 105.48591480147951,
      "height_km": 35790.10207794871,
      "semi_major_axis_km": 42164.0827148139,
      "eccentricity": 0.0001782,
      "inclination_deg": 0.0195,
      "raan_deg": 176.5315,
      "arg_perigee_deg": 201.5007,
      "mean_anomaly_deg": 231.7876,
      "mean_motion_rev_day": 1.00274101
    },
    {
      "epoch": "2026-04-06T03:08:38.565024Z",
      "apogee_km": 35793.52163873764,
      "perigee_km": 35778.46229843522,
      "latitude_deg": 0.012959747381781237,
      "longitude_deg": 105.49311755803402,
      "height_km": 35779.06975617423,
      "semi_major_axis_km": 42164.12896858643,
      "eccentricity": 0.00017858,
      "inclination_deg": 0.0187,
      "raan_deg": 171.8068,
      "arg_perigee_deg": 207.3503,
      "mean_anomaly_deg": 327.9292,
      "mean_motion_rev_day": 1.00273936
    },
    {
      "epoch": "2026-04-07T14:52:32.498112Z",
      "apogee_km": 35793.6863998539,
      "perigee_km": 35778.706255509234,
      "latitude_deg": -0.005521421593504303,
      "longitude_deg": 105.52523963630074,
      "height_km": 35791.693428342274,
      "semi_major_axis_km": 42164.33332768157,
      "eccentricity": 0.00017764,
      "inclination_deg": 0.0117,
      "raan_deg": 141.5346,
      "arg_perigee_deg": 240.0528,
      "mean_anomaly_deg": 142.9511,
      "mean_motion_rev_day": 1.00273207
    },
    {
      "epoch": "2026-04-07T20:40:38.612064Z",
      "apogee_km": 35793.74927580755,
      "perigee_km": 35778.71346204719,
      "latitude_deg": 0.015631001602219984,
      "longitude_deg": 105.49854010592294,
      "height_km": 35790.612423710394,
      "semi_major_axis_km": 42164.368368927375,
      "eccentricity": 0.0001783,
      "inclination_deg": 0.0129,
      "raan_deg": 139.0978,
      "arg_perigee_deg": 243.1239,
      "mean_anomaly_deg": 229.5819,
      "mean_motion_rev_day": 1.00273082
    },
    {
      "epoch": "2026-04-08T13:07:22.338912Z",
      "apogee_km": 35793.79371689682,
      "perigee_km": 35778.86749536425,
      "latitude_deg": -0.010361737102706143,
      "longitude_deg": 105.53488374163344,
      "height_km": 35789.09151534857,
      "semi_major_axis_km": 42164.467606130536,
      "eccentricity": 0.000177,
      "inclination_deg": 0.0164,
      "raan_deg": 129.8975,
      "arg_perigee_deg": 253.4486,
      "mean_anomaly_deg": 115.8178,
      "mean_motion_rev_day": 1.00272728
    },
    {
      "epoch": "2026-04-09T21:17:21.700608Z",
      "apogee_km": 35793.963532679125,
      "perigee_km": 35779.113134026724,
      "latitude_deg": 0.019486472147452746,
      "longitude_deg": 105.50206261590293,
      "height_km": 35790.05568301256,
      "semi_major_axis_km": 42164.67533335293,
      "eccentricity": 0.0001761,
      "inclination_deg": 0.0227,
      "raan_deg": 114.5926,
      "arg_perigee_deg": 271.1738,
      "mean_anomaly_deg": 237.2191,
      "mean_motion_rev_day": 1.00271987
    },
    {
      "epoch": "2026-04-10T13:02:28.212576Z",
      "apogee_km": 35793.999240240744,
      "perigee_km": 35779.29216403424,
      "latitude_deg": -0.005740652081305691,
      "longitude_deg": 105.53694918718091,
      "height_km": 35789.09065236747,
      "semi_major_axis_km": 42164.7827021375,
      "eccentricity": 0.0001744,
      "inclination_deg": 0.0253,
      "raan_deg": 108.2157,
      "arg_perigee_deg": 278.1887,
      "mean_anomaly_deg": 113.5051,
      "mean_motion_rev_day": 1.00271604
    }
  ]
}